{
  "norad_id": 57473,
  "name": "STARLINK-30187",
  "history": [
    {
      "epoch": "2026-03-28T20:00:01.999872Z",
      "apogee_km": 301.5625860934106,
      "perigee_km": 279.64670030686375,
      "latitude_deg": 25.543473016651085,
      "longitude_deg": -150.74991991109457,
      "height_km": 295.69225104944906,
      "semi_major_axis_km": 6668.741643200136,
      "eccentricity": 0.00164318,
      "inclination_deg": 42.9883,
      "raan_deg": 186.1571,
      "arg_perigee_deg": 22.612,
      "mean_anomaly_deg": 118.1557,
      "mean_motion_rev_day": 15.9417841
    },
    {
      "epoch": "2026-03-29T04:00:01.999584Z",
      "apogee_km": 300.3781966198321,
      "perigee_km": 278.9891614456301,
      "latitude_deg": -41.64206209559348,
      "longitude_deg": -170.97680459579772,
      "height_km": 309.1054639779217,
      "semi_major_axis_km": 6667.82067903273,
      "eccentricity": 0.0016039,
      "inclination_deg": 42.9882,
      "raan_deg": 184.0747,
      "arg_perigee_deg": 25.4498,
      "mean_anomaly_deg": 230.9385,
      "mean_motion_rev_day": 15.94508705
    }
  ]
}